SL-16 R/B               
1 25400U 98043G   25363.77820297  .00000129  00000+0  72850-4 0  9993
2 25400  98.8149 311.6937 0009209 212.2242 147.8375 14.26029936429021
SL-16 R/B               
1 25407U 98045B   25363.36365781  .00000175  00000+0  11263-3 0  9990
2 25407  71.0125 329.4662 0005889 148.8947 211.2526 14.16180663417141
ISS (ZARYA)             
1 25544U 98067A   25363.50072365  .00018472  00000+0  33150-3 0  9993
2 25544  51.6323  59.4638 0003290 318.5670  41.5069 15.49944447545450
CZ-4B R/B               
1 25732U 99025C   25363.76150404  .00000107  00000+0  72302-4 0  9995
2 25732  98.6746  44.6589 0037069 184.5090 287.2287 14.18247949378259
OKEAN-O                 
1 25860U 99039A   25363.75733140  .00001091  00000+0  15041-3 0  9994
2 25860  97.9580  59.3100 0001216 115.0565 245.0773 14.80192486424047
SL-16 R/B               
1 25861U 99039B   25363.73609713  .00000942  00000+0  12651-3 0  9999
2 25861  98.0103  57.8866 0015976 121.9433 238.3335 14.81613019426504
DELTA 2 R/B             
1 25876U 99041E   25363.84909963  .00002631  00000+0  46143-3 0  9990
2 25876  51.7593 220.1451 0504351 142.1912 221.5596 14.11454985353163
HELIOS 1B               
1 25977U 99064A   25363.68978699  .00002869  00000+0  32396-3 0  9999
2 25977  98.1751 258.8585 0000677  33.3438 326.7819 14.87356783674856
TERRA                   
1 25994U 99068A   25363.80232281  .00000698  00000+0  15167-3 0  9991
2 25994  97.9726  54.8585 0003268  59.9609  73.9730 14.60922509384870
SL-16 R/B               
1 26070U 00006B   25363.85535407  .00000328  00000+0  19067-3 0  9995
2 26070  71.0010 244.6711 0018658 285.5522  74.3541 14.15811729338678
TITAN 4B R/B            
1 26474U 00047B   25363.77948243  .00005203  00000+0  33194-3 0  9999
2 26474  67.9889 236.9956 0037804 123.7196 236.7565 15.08912274382368
ENVISAT                 
1 27386U 02009A   25352.94754304  .00000081  00000+0  39999-4 0  9991
2 27386  98.3609 303.5309 0001126  84.8976 298.2993 14.39001403247569
